IRIDIUM 155             
1 43573U 18061E   24282.84576849  .00000813  00000+0  28330-3 0  9997
2 43573  86.3946 314.2663 0002349  97.0507 263.0956 14.34219333325016
IRIDIUM 154             
1 43574U 18061F   24283.10581462  .00000058  00000+0  13681-4 0  9990
2 43574  86.3947 314.2606 0002037  91.2433 268.8996 14.34217970325105
IRIDIUM 163             
1 43575U 18061G   24282.80771078  .00000188  00000+0  59893-4 0  9990
2 43575  86.3946 314.3200 0002057  97.4031 262.7399 14.34216370325035
IRIDIUM 156             
1 43576U 18061H   24282.85210748  .00000014  00000+0 -21187-5 0  9993
2 43576  86.3945 314.3085 0002487  98.6811 261.4666 14.34216702325034
IRIDIUM 164             
1 43577U 18061J   24283.04238776  .00000512  00000+0  17586-3 0  9995
2 43577  86.3946 314.2591 0002218  88.9416 271.2034 14.34217922325103
IRIDIUM 159             
1 43578U 18061K   24283.15021019 -.00000002  00000+0 -78568-5 0  9993
2 43578  86.3944 314.1631 0002079  91.3693 268.7741 14.34221899325087
IRIDIUM 180             
1 43922U 19002A   24282.87062094  .00001264  00000+0  44429-3 0  9994
2 43922  86.3936 251.1071 0002180  84.6462 275.4982 14.34220808300658
IRIDIUM 176             
1 43923U 19002B   24283.16766281  .00005618  00000+0  88627-3 0  9992
2 43923  86.6068 250.9946 0002365  87.8152 272.3336 14.72266641308612
IRIDIUM 168             
1 43924U 19002C   24282.86427903  .00001459  00000+0  51390-3 0  9990
2 43924  86.3936 251.1698 0002258  86.0352 274.1102 14.34223763300636
IRIDIUM 173             
1 43925U 19002D   24282.85158173  .00001095  00000+0  38392-3 0  9993
2 43925  86.3933 251.0891 0002130  83.3395 276.8043 14.34230369300615
IRIDIUM 169             
1 43926U 19002E   24282.43165803  .00001075  00000+0  34484-3 0  9992
2 43926  86.4162 282.9138 0001831 143.4713 216.6611 14.38615718301553
IRIDIUM 172             
1 43927U 19002F   24282.84525334  .00000290  00000+0  96371-4 0  9999
2 43927  86.3935 251.0979 0002462  86.7706 273.3772 14.34219680300622
IRIDIUM 175             
1 43928U 19002G   24282.55040721  .00009851  00000+0  15547-2 0  9996
2 43928  86.1542 218.0177 0002509  92.7105 267.4399 14.72299892308510
IRIDIUM 171             
1 43929U 19002H   24282.82622999  .00000076  00000+0  20018-4 0  9991
2 43929  86.3939 251.3439 0002563  85.9732 274.1756 14.34220934300618
IRIDIUM 170             
1 43930U 19002J   24282.90198139  .00005206  00000+0  82114-3 0  9990
2 43930  86.6069 251.1111 0002623  80.3875 279.7638 14.72261359308588
IRIDIUM 167             
1 43931U 19002K   24282.88965472  .00001214  00000+0  42648-3 0  9993
2 43931  86.3939 251.0972 0002820  92.7446 267.4073 14.34214172300629
IRIDIUM 181             
1 56726U 23068S   24282.78625386  .00002042  00000+0  59737-3 0  9999
2 56726  86.8601 310.4332 0002557  92.1060 268.0434 14.43589661 73521
IRIDIUM 177             
1 56727U 23068T   24282.86357438  .00002716  00000+0  35357-3 0  9999
2 56727  86.1931 261.3612 0002597 101.1061 259.0452 14.80276039 75190
IRIDIUM 174             
1 56728U 23068U   24283.19641400  .00002953  00000+0  38478-3 0  9992
2 56728  86.1940 261.3163 0002739  97.8223 262.3309 14.80262506 75249
IRIDIUM 178             
1 56729U 23068V   24282.44704728  .00003339  00000+0  43568-3 0  9998
2 56729  86.5718 284.5187 0002462  91.0630 269.0874 14.80255094 75134
IRIDIUM 179             
1 56730U 23068W   24282.30642617  .00005088  00000+0  66557-3 0  9999
2 56730  86.6733 290.1433 0002452 102.4216 257.7280 14.80258212 75115
